0 OPS 4682 DEB
1 26733U 65027BG  13286.73811613  .00000136  00000-0  46725-3 0   270
2 26733 090.2806 248.6549 0035686 094.8398 022.9885 12.93242363599322
0 OPS 4682 DEB
1 26733U 65027BG  13288.89349646 -.00000170  00000-0 -64658-3 0   287
2 26733 090.2813 248.7097 0035773 089.4509 337.4720 12.93245681599609
0 OPS 4682 DEB
1 26733U 65027BG  13291.38870865  .00000284  00000-0  10095-2 0   297
2 26733 090.2816 248.7735 0035859 083.2869 074.0412 12.93241812599926
0 OPS 4682 DEB
1 26733U 65027BG  13293.83674199  .00000579  00000-0  20866-2 0   307
2 26733 090.2818 248.8365 0035946 077.1751 311.0043 12.93240270600246
0 OPS 4682 DEB
1 26733U 65027BG  13295.85406940  .00000208  00000-0  73182-3 0   318
2 26733 090.2818 248.8884 0035951 072.1782 342.7229 12.93245877600501
